NORAD_CAT_ID,OBJECT_NAME,OBJECT_TYPE,EPOCH,MEAN_MOTION,ECCENTRICITY,INCLINATION,RA_OF_ASC_NODE,ARG_OF_PERICENTER,MEAN_ANOMALY,BSTAR,MEAN_MOTION_DOT,MEAN_MOTION_DDOT,TLE_LINE0,TLE_LINE1,TLE_LINE2,SEMIMAJOR_AXIS,PERIOD,APOGEE,PERIGEE,DECAYED
53400.0,STARLINK-4520,PAYLOAD,2022-12-25 04:56:51,15.08842769,0.0002693,53.2207,338.6211,29.1405,330.9737,0.00012426,1.6899999999999994e-05,0.0,0 STARLINK-4520,1 53400U 22097N   22359.20614982  .00001690  00000-0  12426-3 0  9999,2 53400  53.2207 338.6211 0002693  29.1405 330.9737 15.08842769 21328,6917.871999999999,95.437,541.6,537.874,0.0
53400.0,STARLINK-4520,PAYLOAD,2022-12-25 06:32:14,15.08836008,0.0002653,53.221,338.3266,27.0099,333.1031,6.0374e-05,6.72e-06,0.0,0 STARLINK-4520,1 53400U 22097N   22359.27239582  .00000672  00000-0  60374-4 0  9990,2 53400  53.2210 338.3266 0002653  27.0099 333.1031 15.08836008 21333,6917.893,95.438,541.5930000000002,537.922,0.0
53400.0,STARLINK-4520,PAYLOAD,2022-12-26 07:58:25,15.08841834,0.0002728,53.2203,333.5683,30.1666,329.9483,5.175e-05,5.35e-06,0.0,0 STARLINK-4520,1 53400U 22097N   22360.33223568  .00000535  00000-0  51750-4 0  9992,2 53400  53.2203 333.5683 0002728  30.1666 329.9483 15.08841834 21981,6917.875,95.437,541.627,537.8530000000002,0.0
53400.0,STARLINK-4520,PAYLOAD,2022-12-26 15:55:20,15.08847614,0.000269,53.2213,332.079,33.1391,326.9769,4.6934e-05,4.59e-06,0.0,0 STARLINK-4520,1 53400U 22097N   22360.66343105  .00000459  00000-0  46934-4 0  9991,2 53400  53.2213 332.0790 0002690  33.1391 326.9769 15.08847614 21549,6917.857,95.437,541.5830000000002,537.861,0.0
53400.0,STARLINK-4520,PAYLOAD,2022-12-27 04:38:25,15.08848234,0.0002634,53.2214,329.6999,33.2431,326.8726,0.00012636,1.724e-05,0.0,0 STARLINK-4520,1 53400U 22097N   22361.19334684  .00001724  00000-0  12636-3 0  9999,2 53400  53.2214 329.6999 0002634  33.2431 326.8726 15.08848234 22112,6917.855,95.437,541.5419999999998,537.898,0.0
53400.0,STARLINK-4520,PAYLOAD,2022-12-27 22:07:38,15.08858989,0.0002646,53.2216,326.4291,33.8048,326.3112,0.00021109,3.074e-05,0.0,0 STARLINK-4520,1 53400U 22097N   22361.92197493  .00003074  00000-0  21109-3 0  9990,2 53400  53.2216 326.4291 0002646  33.8048 326.3112 15.08858989 21736,6917.821999999999,95.436,541.518,537.857,0.0
53400.0,STARLINK-4520,PAYLOAD,2022-12-28 01:18:25,15.08852952,0.0002615,53.2204,325.8349,31.9088,328.2062,0.00046839,7.177e-05,0.0,0 STARLINK-4520,1 53400U 22097N   22362.05446018  .00007177  00000-0  46839-3 0  9990,2 53400  53.2204 325.8349 0002615  31.9088 328.2062 15.08852952 21750,6917.840999999999,95.437,541.515,537.8969999999998,0.0
53400.0,STARLINK-4520,PAYLOAD,2022-12-29 04:19:59,15.08828455,0.0002644,53.2201,320.7796,37.4023,322.7153,-0.0001940999999999,-3.375e-05,0.0,0 STARLINK-4520,1 53400U 22097N   22363.18055419 -.00003375  00000-0 -19410-3 0  9999,2 53400  53.2201 320.7796 0002644  37.4023 322.7153 15.08828455 21929,6917.916,95.438,541.61,537.952,0.0
53400.0,STARLINK-4520,PAYLOAD,2022-12-30 04:10:46,15.08839207,0.0002418,53.2192,316.3211,24.7243,335.3864,8.9182e-05,1.131e-05,0.0,0 STARLINK-4520,1 53400U 22097N   22364.17415489  .00001131  00000-0  89182-4 0  9996,2 53400  53.2192 316.3211 0002418  24.7243 335.3864 15.08839207 22076,6917.8830000000025,95.438,541.4209999999998,538.075,0.0
53400.0,STARLINK-4520,PAYLOAD,2022-12-30 07:21:33,15.08843398,0.0002481999999999,53.2187,315.7255,27.2114,332.9008,0.00039622,6.024e-05,0.0,0 STARLINK-4520,1 53400U 22097N   22364.30663717  .00006024  00000-0  39622-3 0  9999,2 53400  53.2187 315.7255 0002482  27.2114 332.9008 15.08843398 22582,6917.87,95.437,541.452,538.018,0.0
53400.0,STARLINK-4520,PAYLOAD,2022-12-30 20:04:37,15.08877161,0.0002498,53.219,313.3467,27.676,332.4365,0.001342,0.00021157,0.0,0 STARLINK-4520,1 53400U 22097N   22364.83655025  .00021157  00000-0  13420-2 0  9991,2 53400  53.2190 313.3467 0002498  27.6760 332.4365 15.08877161 22174,6917.767,95.435,541.36,537.904,0.0
53400.0,STARLINK-4520,PAYLOAD,2022-12-31 05:36:56,15.08877375,0.0002488,53.2197,311.5624,26.9486,333.1635,0.00063761,9.884e-05,0.0,0 STARLINK-4520,1 53400U 22097N   22365.23398187  .00009884  00000-0  63761-3 0  9996,2 53400  53.2197 311.5624 0002488  26.9486 333.1635 15.08877375 22234,6917.766,95.435,541.352,537.91,0.0
53400.0,STARLINK-4520,PAYLOAD,2022-12-31 13:33:51,15.088681,0.0002618999999999,53.2181,310.0751,29.5453,330.5687,0.00018832,2.712e-05,0.0,0 STARLINK-4520,1 53400U 22097N   22365.56517811  .00002712  00000-0  18832-3 0  9991,2 53400  53.2181 310.0751 0002619  29.5453 330.5687 15.08868100 22280,6917.794,95.436,541.471,537.8480000000002,0.0
53400.0,STARLINK-4520,PAYLOAD,2022-12-31 19:55:23,15.08864563,0.0002783,53.2195,308.8886,33.9216,326.1954,8.232399999999999e-05,1.023e-05,0.0,0 STARLINK-4520,1 53400U 22097N   22365.83013604  .00001023  00000-0  82324-4 0  9994,2 53400  53.2195 308.8886 0002783  33.9216 326.1954 15.08864563 22813,6917.805,95.436,541.596,537.745,0.0
53400.0,STARLINK-4520,PAYLOAD,2023-01-01 07:03:06,15.08831648,0.0002777,53.2193,306.8072,26.2828,333.8305,-0.00030557,-5.148e-05,0.0,0 STARLINK-4520,1 53400U 22097N   23001.29382347 -.00005148  00000-0 -30557-3 0  9999,2 53400  53.2193 306.8072 0002777  26.2828 333.8305 15.08831648 22399,6917.906,95.438,541.692,537.85,0.0
53400.0,STARLINK-4520,PAYLOAD,2023-01-01 19:46:12,15.08806145,0.0003082,53.2194,304.4263,30.7682,329.349,-8.688399999999999e-05,-1.67e-05,0.0,0 STARLINK-4520,1 53400U 22097N   23001.82376105 -.00001670  00000-0 -86884-4 0  9994,2 53400  53.2194 304.4263 0003082  30.7682 329.3490 15.08806145 22966,6917.984,95.44,541.981,537.717,0.0
53400.0,STARLINK-4520,PAYLOAD,2023-01-02 02:07:46,15.08804774,0.0003114,53.2186,303.2395,29.5532,330.5636,-0.00026143,-4.443e-05,0.0,0 STARLINK-4520,1 53400U 22097N   23002.08872716 -.00004443  00000-0 -26143-3 0  9994,2 53400  53.2186 303.2395 0003114  29.5532 330.5636 15.08804774 22519,6917.988,95.44,542.007,537.6990000000002,0.0
53400.0,STARLINK-4520,PAYLOAD,2023-01-02 13:15:27,15.08834494,0.0002634,53.2209,301.1563,29.6856,330.4286,0.00029197,4.361e-05,0.0,0 STARLINK-4520,1 53400U 22097N   23002.55240344  .00004361  00000-0  29197-3 0  9991,2 53400  53.2209 301.1563 0002634  29.6856 330.4286 15.08834494 22584,6917.897,95.438,541.5840000000002,537.94,0.0
53400.0,STARLINK-4520,PAYLOAD,2023-01-03 05:09:19,15.08834815,0.0002554,53.2194,298.1821,31.7994,328.3152,0.0004399,6.719e-05,0.0,0 STARLINK-4520,1 53400U 22097N   23003.21481146  .00006719  00000-0  43990-3 0  9998,2 53400  53.2194 298.1821 0002554  31.7994 328.3152 15.08834815 22683,6917.896,95.438,541.528,537.994,0.0
53400.0,STARLINK-4520,PAYLOAD,2023-01-03 13:06:15,15.08838152,0.0002719,53.2198,296.6954,32.979,327.1371,0.00045184,6.91e-05,0.0,0 STARLINK-4520,1 53400U 22097N   23003.54601080  .00006910  00000-0  45184-3 0  9995,2 53400  53.2198 296.6954 0002719  32.9790 327.1371 15.08838152 23226,6917.886,95.438,541.632,537.87,0.0
53400.0,STARLINK-4520,PAYLOAD,2023-01-04 06:35:29,15.0885682,0.0002637,53.2195,293.4244,33.7605,326.3555,0.00053013,8.163e-05,0.0,0 STARLINK-4520,1 53400U 22097N   23004.27464433  .00008163  00000-0  53013-3 0  9997,2 53400  53.2195 293.4244 0002637  33.7605 326.3555 15.08856820 23332,6917.829000000002,95.436,541.518,537.87,0.0
53400.0,STARLINK-4520,PAYLOAD,2023-01-05 04:50:52,15.08864247,0.0002526999999999,53.2194,289.2612,36.5144,323.6020000000001,0.00024785,3.661e-05,0.0,0 STARLINK-4520,1 53400U 22097N   23005.20199132  .00003661  00000-0  24785-3 0  9994,2 53400  53.2194 289.2612 0002527  36.5144 323.6020 15.08864247 22989,6917.806,95.436,541.419,537.923,0.0
53400.0,STARLINK-4520,PAYLOAD,2023-01-06 04:41:38,15.08858976,0.0002327,53.2199,284.8032,16.3597,343.7469,9.029e-05,1.15e-05,0.0,0 STARLINK-4520,1 53400U 22097N   23006.19558075  .00001150  00000-0  90290-4 0  9994,2 53400  53.2199 284.8032 0002327  16.3597 343.7469 15.08858976 23137,6917.821999999999,95.436,541.297,538.078,0.0
53400.0,STARLINK-4520,PAYLOAD,2023-01-06 19:00:07,15.08825991,0.0002617,53.2193,282.1261,30.0117,330.1025,-0.0003703,-6.175e-05,0.0,0 STARLINK-4520,1 53400U 22097N   23006.79175675 -.00006175  00000-0 -37030-3 0  9997,2 53400  53.2193 282.1261 0002617  30.0117 330.1025 15.08825991 23228,6917.923000000002,95.438,541.599,537.9780000000002,0.0
53400.0,STARLINK-4520,PAYLOAD,2023-01-07 04:32:26,15.08832598,0.0002696,53.219,280.3416,28.7489,331.3651,-0.00013371,-2.416e-05,0.0,0 STARLINK-4520,1 53400U 22097N   23007.18919683 -.00002416  00000-0 -13371-3 0  9992,2 53400  53.2190 280.3416 0002696  28.7489 331.3651 15.08832598 23779,6917.903,95.438,541.633,537.903,0.0
53400.0,STARLINK-4520,PAYLOAD,2023-01-07 10:53:59,15.08840028,0.0002692,53.2193,279.1525,29.3292,330.7851,0.00010262,1.345e-05,0.0,0 STARLINK-4520,1 53400U 22097N   23007.45415585  .00001345  00000-0  10262-3 0  9998,2 53400  53.2193 279.1525 0002692  29.3292 330.7851 15.08840028 23327,6917.88,95.438,541.6080000000002,537.883,0.0
53400.0,STARLINK-4520,PAYLOAD,2023-01-07 18:50:55,15.08831016,0.0002784,53.2191,277.6659,32.9595,327.1571,0.00037847,5.739e-05,0.0,0 STARLINK-4520,1 53400U 22097N   23007.78536359  .00005739  00000-0  37847-3 0  9996,2 53400  53.2191 277.6659 0002784  32.9595 327.1571 15.08831016 23375,6917.908,95.438,541.6990000000002,537.847,0.0
53400.0,STARLINK-4520,PAYLOAD,2023-01-08 12:20:09,15.08843564,0.0002539,53.2186,274.395,29.6141,330.4994,0.00036905,5.591e-05,0.0,0 STARLINK-4520,1 53400U 22097N   23008.51400386  .00005591  00000-0  36905-3 0  9998,2 53400  53.2186 274.3950 0002539  29.6141 330.4994 15.08843564 23978,6917.8690000000015,95.437,541.491,537.9780000000002,0.0
53400.0,STARLINK-4520,PAYLOAD,2023-01-08 20:17:05,15.08842579,0.0002496,53.2189,272.9089,24.5176,335.5935,0.00036054,5.455e-05,0.0,0 STARLINK-4520,1 53400U 22097N   23008.84520598  .00005455  00000-0  36054-3 0  9996,2 53400  53.2189 272.9089 0002496  24.5176 335.5935 15.08842579 24025,6917.873000000001,95.437,541.464,538.011,0.0
